OBJECT_NAME,OBJECT_ID,EPOCH,MEAN_MOTION,ECCENTRICITY,INCLINATION,RA_OF_ASC_NODE,ARG_OF_PERICENTER,MEAN_ANOMALY,EPHEMERIS_TYPE,CLASSIFICATION_TYPE,NORAD_CAT_ID,ELEMENT_SET_NO,REV_AT_EPOCH,BSTAR,MEAN_MOTION_DOT,MEAN_MOTION_DDOT
STARLINK-32855,2025-018H,2025-03-25T13:22:49.512000,15.39612195,.0001284,53.1607,135.6103,91.6415,268.4737,0,U,62813,999,1056,-.14954E-3,-.6374E-4,0
STARLINK-32845,2025-018K,2025-03-25T10:22:34.436064,15.39602012,.0001182,53.1614,136.2493,79.8380,280.2758,0,U,62815,999,963,.95354E-4,.3414E-4,0
STARLINK-32854,2025-018L,2025-03-25T20:30:15.058080,15.39595964,.0001565,53.1628,134.6219,82.0606,278.0577,0,U,62816,999,969,.13401E-3,.496E-4,0
STARLINK-32856,2025-018P,2025-03-25T20:09:42.062688,15.39603025,.0001316,53.1622,134.5313,103.0699,257.0453,0,U,62819,999,970,.98742E-4,.355E-4,0
STARLINK-32844,2025-018Q,2025-03-25T20:42:59.048352,15.39622990,.0001238,53.1619,133.9640,83.4048,276.7098,0,U,62820,999,971,-.33879E-4,-.1754E-4,0
STARLINK-32782,2025-018R,2025-03-25T13:22:20.303616,15.39627451,.0001441,53.1621,135.6087,81.2667,278.8501,0,U,62821,999,1052,-.47216E-4,-.2288E-4,0
STARLINK-32704,2025-018W,2025-03-25T11:08:54.277440,15.39582718,.0001202,53.1631,136.4539,94.6034,265.5108,0,U,62826,999,963,.39863E-4,.1194E-4,0
STARLINK-32838,2025-018X,2025-03-24T19:40:09.454368,15.80310576,.00011,53.1304,124.8076,61.4435,298.6698,0,U,62827,999,974,.76468E-4,.14039E-3,0
STARLINK-32727,2025-018Y,2025-03-25T23:12:25.934976,15.37607286,.0012171,53.1624,133.8964,109.1888,251.0434,0,U,62828,999,1065,-.6961E-2,-.253419E-2,0
STARLINK-11548 [DTC],2025-019A,2025-03-25T22:00:00.999936,15.70809384,.0002031,42.9986,248.0001,277.4986,345.8381,0,U,62829,999,594,.45682E-3,.58508E-3,0
STARLINK-11559 [DTC],2025-019C,2025-03-25T17:34:50.292192,15.70826791,.0003835,42.9967,249.8526,274.4971,85.5458,0,U,62831,999,899,.31583E-5,-.46E-6,0
STARLINK-11549 [DTC],2025-019D,2025-03-25T18:43:28.065216,15.70834268,.0001333,42.9978,249.3402,298.4212,61.6521,0,U,62832,999,994,-.16721E-4,-.2592E-4,0
STARLINK-11554 [DTC],2025-019E,2025-03-25T20:22:40.023840,15.70835068,.0002784,43.0010,249.0014,277.4221,82.6330,0,U,62833,999,901,-.16214E-4,-.253E-4,0
STARLINK-11520 [DTC],2025-019F,2025-03-25T17:57:31.604544,15.70887778,.0002406,42.9988,249.0835,280.1463,79.9133,0,U,62834,999,901,.19929E-4,.2113E-4,0
STARLINK-11546 [DTC],2025-019G,2025-03-25T17:42:29.133216,15.70803419,.0003385,42.9994,249.8964,276.6349,83.4133,0,U,62835,999,899,-.71935E-4,-.9658E-4,0
STARLINK-11556 [DTC],2025-019K,2025-03-25T17:58:54.395616,15.70827608,.0002061,42.9978,249.0858,275.3894,84.6738,0,U,62838,999,900,-.12969E-4,-.2112E-4,0
STARLINK-11524 [DTC],2025-019L,2025-03-25T17:27:10.969920,15.70840196,.0001951,42.9993,249.8089,273.3314,86.7331,0,U,62839,999,899,.93458E-5,.75E-5,0
STARLINK-11551 [DTC],2025-019M,2025-03-25T18:12:52.389216,15.70840204,.0001135,42.9987,249.1677,293.0418,67.0329,0,U,62840,999,900,.10868E-4,.947E-5,0
STARLINK-11531 [DTC],2025-019N,2025-03-24T12:04:35.863968,15.70844322,.0002435,42.9969,256.9586,277.7759,82.2832,0,U,62841,999,880,.73685E-6,-.355E-5,0
STARLINK-32755,2025-019P,2025-03-24T20:46:51.298464,15.40708510,.0001018,43.0010,266.0162,267.1965,92.8775,0,U,62842,999,873,.58297E-4,.2133E-4,0
