STARLINK-32855          
1 62813U 25018H   25084.55751750 -.00006374  00000+0 -14954-3 0  9997
2 62813  53.1607 135.6103 0001284  91.6415 268.4737 15.39612195 10565
STARLINK-32845          
1 62815U 25018K   25084.43234301  .00003414  00000+0  95354-4 0  9998
2 62815  53.1614 136.2493 0001182  79.8380 280.2758 15.39602012  9638
STARLINK-32854          
1 62816U 25018L   25084.85434095  .00004960  00000+0  13401-3 0  9996
2 62816  53.1628 134.6219 0001565  82.0606 278.0577 15.39595964  9691
STARLINK-32856          
1 62819U 25018P   25084.84007017  .00003550  00000+0  98742-4 0  9994
2 62819  53.1622 134.5313 0001316 103.0699 257.0453 15.39603025  9702
STARLINK-32844          
1 62820U 25018Q   25084.86318343 -.00001754  00000+0 -33879-4 0  9991
2 62820  53.1619 133.9640 0001238  83.4048 276.7098 15.39622990  9714
STARLINK-32782          
1 62821U 25018R   25084.55717944 -.00002288  00000+0 -47216-4 0  9991
2 62821  53.1621 135.6087 0001441  81.2667 278.8501 15.39627451 10521
STARLINK-32704          
1 62826U 25018W   25084.46451710  .00001194  00000+0  39863-4 0  9994
2 62826  53.1631 136.4539 0001202  94.6034 265.5108 15.39582718  9631
STARLINK-32838          
1 62827U 25018X   25083.81955387  .00014039  00000+0  76468-4 0  9996
2 62827  53.1304 124.8076 0001100  61.4435 298.6698 15.80310576  9740
STARLINK-32727          
1 62828U 25018Y   25084.96696684 -.00253419  00000+0 -69610-2 0  9994
2 62828  53.1624 133.8964 0012171 109.1888 251.0434 15.37607286 10667
STARLINK-11548 [DTC]    
1 62829U 25019A   25084.91667824  .00058508  00000+0  45682-3 0  9999
2 62829  42.9986 248.0001 0002031 277.4986 345.8381 15.70809384  5946
STARLINK-11559 [DTC]    
1 62831U 25019C   25084.73252653 -.00000046  00000+0  31583-5 0  9994
2 62831  42.9967 249.8526 0003835 274.4971  85.5458 15.70826791  8995
STARLINK-11549 [DTC]    
1 62832U 25019D   25084.78018594 -.00002592  00000+0 -16721-4 0  9999
2 62832  42.9978 249.3402 0001333 298.4212  61.6521 15.70834268  9941
STARLINK-11554 [DTC]    
1 62833U 25019E   25084.84907435 -.00002530  00000+0 -16214-4 0  9997
2 62833  43.0010 249.0014 0002784 277.4221  82.6330 15.70835068  9013
STARLINK-11520 [DTC]    
1 62834U 25019F   25084.74828246  .00002113  00000+0  19929-4 0  9990
2 62834  42.9988 249.0835 0002406 280.1463  79.9133 15.70887778  9012
STARLINK-11546 [DTC]    
1 62835U 25019G   25084.73783719 -.00009658  00000+0 -71935-4 0  9993
2 62835  42.9994 249.8964 0003385 276.6349  83.4133 15.70803419  8997
STARLINK-11556 [DTC]    
1 62838U 25019K   25084.74924069 -.00002112  00000+0 -12969-4 0  9992
2 62838  42.9978 249.0858 0002061 275.3894  84.6738 15.70827608  9000
STARLINK-11524 [DTC]    
1 62839U 25019L   25084.72721030  .00000750  00000+0  93458-5 0  9991
2 62839  42.9993 249.8089 0001951 273.3314  86.7331 15.70840196  8990
STARLINK-11551 [DTC]    
1 62840U 25019M   25084.75893969  .00000947  00000+0  10868-4 0  9998
2 62840  42.9987 249.1677 0001135 293.0418  67.0329 15.70840204  9001
STARLINK-11531 [DTC]    
1 62841U 25019N   25083.50319287 -.00000355  00000+0  73685-6 0  9999
2 62841  42.9969 256.9586 0002435 277.7759  82.2832 15.70844322  8808
STARLINK-32755          
1 62842U 25019P   25083.86587151  .00002133  00000+0  58297-4 0  9991
2 62842  43.0010 266.0162 0001018 267.1965  92.8775 15.40708510  8738
